[
  {
    "OBJECT_NAME": "STARLINK-31486",
    "OBJECT_ID": "24045D",
    "EPOCH": "2025-11-11T05:45:47.869632",
    "MEAN_MOTION": 15.27578073,
    "ECCENTRICITY": 7.95e-05,
    "INCLINATION": 42.9994,
    "RA_OF_ASC_NODE": 38.2399,
    "ARG_OF_PERICENTER": 307.4846,
    "MEAN_ANOMALY": 52.5934,
    "EPHEMERIS_TYPE": 0,
    "CLASSIFICATION_TYPE": "U",
    "NORAD_CAT_ID": 59181,
    "ELEMENT_SET_NO": 999,
    "REV_AT_EPOCH": 9508,
    "BSTAR": 0.00032116,
    "MEAN_MOTION_DOT": 8.586e-05,
    "MEAN_MOTION_DDOT": 0.0,
    "TLE_LINE1": "1 59181U 24045D   25315.24013738  .00008586  00000+0  32116-3 0  9995",
    "TLE_LINE2": "2 59181  42.9994  38.2399 0000795 307.4846  52.5934 15.27578073 95085",
    "COMMENT": "Grouped by shell and plane from TLE"
  },
  {
    "OBJECT_NAME": "STARLINK-31394",
    "OBJECT_ID": "24045H",
    "EPOCH": "2025-11-11T06:42:29.835936",
    "MEAN_MOTION": 15.27585095,
    "ECCENTRICITY": 0.0001225,
    "INCLINATION": 43.0052,
    "RA_OF_ASC_NODE": 30.7618,
    "ARG_OF_PERICENTER": 275.4116,
    "MEAN_ANOMALY": 84.6596,
    "EPHEMERIS_TYPE": 0,
    "CLASSIFICATION_TYPE": "U",
    "NORAD_CAT_ID": 59185,
    "ELEMENT_SET_NO": 999,
    "REV_AT_EPOCH": 9517,
    "BSTAR": 4.7634e-05,
    "MEAN_MOTION_DOT": 1.049e-05,
    "MEAN_MOTION_DDOT": 0.0,
    "TLE_LINE1": "1 59185U 24045H   25315.27951199  .00001049  00000+0  47634-4 0  9993",
    "TLE_LINE2": "2 59185  43.0052  30.7618 0001225 275.4116  84.6596 15.27585095 95172",
    "COMMENT": "Grouped by shell and plane from TLE"
  },
  {
    "OBJECT_NAME": "STARLINK-31551",
    "OBJECT_ID": "24045P",
    "EPOCH": "2025-11-11T06:18:54.359424",
    "MEAN_MOTION": 15.27571526,
    "ECCENTRICITY": 7.52e-05,
    "INCLINATION": 42.9982,
    "RA_OF_ASC_NODE": 37.5712,
    "ARG_OF_PERICENTER": 294.1996,
    "MEAN_ANOMALY": 65.8777,
    "EPHEMERIS_TYPE": 0,
    "CLASSIFICATION_TYPE": "U",
    "NORAD_CAT_ID": 59191,
    "ELEMENT_SET_NO": 999,
    "REV_AT_EPOCH": 9509,
    "BSTAR": 0.00010685000000000001,
    "MEAN_MOTION_DOT": 2.679e-05,
    "MEAN_MOTION_DDOT": 0.0,
    "TLE_LINE1": "1 59191U 24045P   25315.26312916  .00002679  00000+0  10685-3 0  9992",
    "TLE_LINE2": "2 59191  42.9982  37.5712 0000752 294.1996  65.8777 15.27571526 95094",
    "COMMENT": "Grouped by shell and plane from TLE"
  },
  {
    "OBJECT_NAME": "STARLINK-31716",
    "OBJECT_ID": "24062D",
    "EPOCH": "2025-11-11T06:08:39.676128",
    "MEAN_MOTION": 15.30205608,
    "ECCENTRICITY": 9.34e-05,
    "INCLINATION": 53.1601,
    "RA_OF_ASC_NODE": 37.13,
    "ARG_OF_PERICENTER": 81.2688,
    "MEAN_ANOMALY": 278.8419,
    "EPHEMERIS_TYPE": 0,
    "CLASSIFICATION_TYPE": "U",
    "NORAD_CAT_ID": 59377,
    "ELEMENT_SET_NO": 999,
    "REV_AT_EPOCH": 9217,
    "BSTAR": 6.4505e-06,
    "MEAN_MOTION_DOT": -1.68e-06,
    "MEAN_MOTION_DDOT": 0.0,
    "TLE_LINE1": "1 59377U 24062D   25315.25601477 -.00000168  00000+0  64505-5 0  9993",
    "TLE_LINE2": "2 59377  53.1601  37.1300 0000934  81.2688 278.8419 15.30205608 92170",
    "COMMENT": "Grouped by shell and plane from TLE"
  },
  {
    "OBJECT_NAME": "STARLINK-31795",
    "OBJECT_ID": "24082Q",
    "EPOCH": "2025-11-11T05:33:59.809536",
    "MEAN_MOTION": 15.27576165,
    "ECCENTRICITY": 0.0001096,
    "INCLINATION": 43.001,
    "RA_OF_ASC_NODE": 30.2243,
    "ARG_OF_PERICENTER": 277.0036,
    "MEAN_ANOMALY": 83.0691,
    "EPHEMERIS_TYPE": 0,
    "CLASSIFICATION_TYPE": "U",
    "NORAD_CAT_ID": 59645,
    "ELEMENT_SET_NO": 999,
    "REV_AT_EPOCH": 8736,
    "BSTAR": 1.0358000000000001e-05,
    "MEAN_MOTION_DOT": 2.3e-07,
    "MEAN_MOTION_DDOT": 0.0,
    "TLE_LINE1": "1 59645U 24082Q   25315.23194224  .00000023  00000+0  10358-4 0  9993",
    "TLE_LINE2": "2 59645  43.0010  30.2243 0001096 277.0036  83.0691 15.27576165 87360",
    "COMMENT": "Grouped by shell and plane from TLE"
  },
  {
    "OBJECT_NAME": "STARLINK-32247",
    "OBJECT_ID": "24144X",
    "EPOCH": "2025-11-11T04:57:17.993664",
    "MEAN_MOTION": 15.3019336,
    "ECCENTRICITY": 8.35e-05,
    "INCLINATION": 53.1623,
    "RA_OF_ASC_NODE": 37.049,
    "ARG_OF_PERICENTER": 82.3213,
    "MEAN_ANOMALY": 277.7883,
    "EPHEMERIS_TYPE": 0,
    "CLASSIFICATION_TYPE": "U",
    "NORAD_CAT_ID": 60446,
    "ELEMENT_SET_NO": 999,
    "REV_AT_EPOCH": 7135,
    "BSTAR": 9.018800000000001e-05,
    "MEAN_MOTION_DOT": 2.313e-05,
    "MEAN_MOTION_DDOT": 0.0,
    "TLE_LINE1": "1 60446U 24144X   25315.20645826  .00002313  00000+0  90188-4 0  9992",
    "TLE_LINE2": "2 60446  53.1623  37.0490 0000835  82.3213 277.7883 15.30193360 71359",
    "COMMENT": "Grouped by shell and plane from TLE"
  },
  {
    "OBJECT_NAME": "STARLINK-32643",
    "OBJECT_ID": "24231R",
    "EPOCH": "2025-11-11T05:48:54.534240",
    "MEAN_MOTION": 15.30250184,
    "ECCENTRICITY": 9.66e-05,
    "INCLINATION": 53.1608,
    "RA_OF_ASC_NODE": 37.0232,
    "ARG_OF_PERICENTER": 53.7278,
    "MEAN_ANOMALY": 306.3812,
    "EPHEMERIS_TYPE": 0,
    "CLASSIFICATION_TYPE": "U",
    "NORAD_CAT_ID": 62233,
    "ELEMENT_SET_NO": 999,
    "REV_AT_EPOCH": 5380,
    "BSTAR": 0.0020022,
    "MEAN_MOTION_DOT": 0.0005951,
    "MEAN_MOTION_DDOT": 0.0,
    "TLE_LINE1": "1 62233U 24231R   25315.24229785  .00059510  00000+0  20022-2 0  9990",
    "TLE_LINE2": "2 62233  53.1608  37.0232 0000966  53.7278 306.3812 15.30250184 53809",
    "COMMENT": "Grouped by shell and plane from TLE"
  },
  {
    "OBJECT_NAME": "STARLINK-32631",
    "OBJECT_ID": "24231T",
    "EPOCH": "2025-11-10T23:11:25.732320",
    "MEAN_MOTION": 15.30218955,
    "ECCENTRICITY": 0.0001998,
    "INCLINATION": 53.1612,
    "RA_OF_ASC_NODE": 38.1449,
    "ARG_OF_PERICENTER": 85.8232,
    "MEAN_ANOMALY": 274.2998,
    "EPHEMERIS_TYPE": 0,
    "CLASSIFICATION_TYPE": "U",
    "NORAD_CAT_ID": 62235,
    "ELEMENT_SET_NO": 999,
    "REV_AT_EPOCH": 5376,
    "BSTAR": 0.0011326,
    "MEAN_MOTION_DOT": 0.00033357,
    "MEAN_MOTION_DDOT": 0.0,
    "TLE_LINE1": "1 62235U 24231T   25314.96627005  .00033357  00000+0  11326-2 0  9995",
    "TLE_LINE2": "2 62235  53.1612  38.1449 0001998  85.8232 274.2998 15.30218955 53763",
    "COMMENT": "Grouped by shell and plane from TLE"
  },
  {
    "OBJECT_NAME": "STARLINK-32641",
    "OBJECT_ID": "24231U",
    "EPOCH": "2025-11-11T05:53:28.039488",
    "MEAN_MOTION": 15.30248865,
    "ECCENTRICITY": 0.0001721,
    "INCLINATION": 53.1598,
    "RA_OF_ASC_NODE": 37.0406,
    "ARG_OF_PERICENTER": 62.2569,
    "MEAN_ANOMALY": 297.8606,
    "EPHEMERIS_TYPE": 0,
    "CLASSIFICATION_TYPE": "U",
    "NORAD_CAT_ID": 62236,
    "ELEMENT_SET_NO": 999,
    "REV_AT_EPOCH": 5380,
    "BSTAR": 0.0019817000000000003,
    "MEAN_MOTION_DOT": 0.0005889,
    "MEAN_MOTION_DDOT": 0.0,
    "TLE_LINE1": "1 62236U 24231U   25315.24546342  .00058890  00000+0  19817-2 0  9994",
    "TLE_LINE2": "2 62236  53.1598  37.0406 0001721  62.2569 297.8606 15.30248865 53809",
    "COMMENT": "Grouped by shell and plane from TLE"
  },
  {
    "OBJECT_NAME": "STARLINK-32755",
    "OBJECT_ID": "25019P",
    "EPOCH": "2025-11-11T05:13:52.081824",
    "MEAN_MOTION": 15.27655565,
    "ECCENTRICITY": 0.0001255,
    "INCLINATION": 43.0014,
    "RA_OF_ASC_NODE": 31.0083,
    "ARG_OF_PERICENTER": 220.9172,
    "MEAN_ANOMALY": 139.1586,
    "EPHEMERIS_TYPE": 0,
    "CLASSIFICATION_TYPE": "U",
    "NORAD_CAT_ID": 62842,
    "ELEMENT_SET_NO": 999,
    "REV_AT_EPOCH": 4421,
    "BSTAR": 0.0023281,
    "MEAN_MOTION_DOT": 0.00064514,
    "MEAN_MOTION_DDOT": 0.0,
    "TLE_LINE1": "1 62842U 25019P   25315.21796391  .00064514  00000+0  23281-2 0  9990",
    "TLE_LINE2": "2 62842  43.0014  31.0083 0001255 220.9172 139.1586 15.27655565 44218",
    "COMMENT": "Grouped by shell and plane from TLE"
  },
  {
    "OBJECT_NAME": "STARLINK-32797",
    "OBJECT_ID": "25019Q",
    "EPOCH": "2025-11-11T05:19:51.998304",
    "MEAN_MOTION": 15.2760919,
    "ECCENTRICITY": 0.0003732,
    "INCLINATION": 43.0026,
    "RA_OF_ASC_NODE": 37.9521,
    "ARG_OF_PERICENTER": 284.5311,
    "MEAN_ANOMALY": 75.5126,
    "EPHEMERIS_TYPE": 0,
    "CLASSIFICATION_TYPE": "U",
    "NORAD_CAT_ID": 62843,
    "ELEMENT_SET_NO": 999,
    "REV_AT_EPOCH": 4413,
    "BSTAR": 0.0014138,
    "MEAN_MOTION_DOT": 0.00038887,
    "MEAN_MOTION_DDOT": 0.0,
    "TLE_LINE1": "1 62843U 25019Q   25315.22212961  .00038887  00000+0  14138-2 0  9993",
    "TLE_LINE2": "2 62843  43.0026  37.9521 0003732 284.5311  75.5126 15.27609190 44134",
    "COMMENT": "Grouped by shell and plane from TLE"
  },
  {
    "OBJECT_NAME": "STARLINK-32794",
    "OBJECT_ID": "25019R",
    "EPOCH": "2025-11-11T05:56:52.212192",
    "MEAN_MOTION": 15.27614805,
    "ECCENTRICITY": 7.51e-05,
    "INCLINATION": 42.9966,
    "RA_OF_ASC_NODE": 38.1468,
    "ARG_OF_PERICENTER": 271.7276,
    "MEAN_ANOMALY": 88.3489,
    "EPHEMERIS_TYPE": 0,
    "CLASSIFICATION_TYPE": "U",
    "NORAD_CAT_ID": 62844,
    "ELEMENT_SET_NO": 999,
    "REV_AT_EPOCH": 4413,
    "BSTAR": 0.0020107,
    "MEAN_MOTION_DOT": 0.00055544,
    "MEAN_MOTION_DDOT": 0.0,
    "TLE_LINE1": "1 62844U 25019R   25315.24782653  .00055544  00000+0  20107-2 0  9998",
    "TLE_LINE2": "2 62844  42.9966  38.1468 0000751 271.7276  88.3489 15.27614805 44138",
    "COMMENT": "Grouped by shell and plane from TLE"
  },
  {
    "OBJECT_NAME": "STARLINK-32807",
    "OBJECT_ID": "25019S",
    "EPOCH": "2025-11-11T06:20:15.546912",
    "MEAN_MOTION": 15.27601673,
    "ECCENTRICITY": 9.56e-05,
    "INCLINATION": 43.0021,
    "RA_OF_ASC_NODE": 30.4801,
    "ARG_OF_PERICENTER": 202.4232,
    "MEAN_ANOMALY": 157.6578,
    "EPHEMERIS_TYPE": 0,
    "CLASSIFICATION_TYPE": "U",
    "NORAD_CAT_ID": 62845,
    "ELEMENT_SET_NO": 999,
    "REV_AT_EPOCH": 4422,
    "BSTAR": 0.0015279999999999998,
    "MEAN_MOTION_DOT": 0.00042054,
    "MEAN_MOTION_DDOT": 0.0,
    "TLE_LINE1": "1 62845U 25019S   25315.26406883  .00042054  00000+0  15280-2 0  9997",
    "TLE_LINE2": "2 62845  43.0021  30.4801 0000956 202.4232 157.6578 15.27601673 44227",
    "COMMENT": "Grouped by shell and plane from TLE"
  }
]